JY1SAT (JO-97)          
1 43803U 18099AX  26068.68634132  .00017774  00000+0  60804-3 0  9996
2 43803  97.4249 131.3625 0004723 256.6795 103.3919 15.30302628398390
STARLINK-32786          
1 62528U 25004T   26068.42956381  .00046990  00000+0  17049-2 0  9994
2 62528  43.0000 220.9248 0001643 257.5437 102.5230 15.27605327 65479
